{"type": "FeatureCollection", "features": [ {"type": "Feature", "properties": {"norad_id": 34875, "name": "COSMOS 2251 DEB", "group": "cosmos-2251-debris", "lat": -55.30177649646978, "lon": -11.877830345206215, "alt_km": 725.5944046515906, "timestamp": "2025-12-20T11:30:28.771424+00:00", "meta": {"OBJECT_NAME": "COSMOS 2251 DEB", "OBJECT_ID": "1993-036ACN", "EPOCH": "2025-12-19T11:28:39.014112", "MEAN_MOTION": 14.48947014, "ECCENTRICITY": 0.0016196, "INCLINATION": 74.0433, "RA_OF_ASC_NODE": 145.5897, "ARG_OF_PERICENTER": 268.763, "MEAN_ANOMALY": 149.3216, "EPHEMERIS_TYPE": 0, "CLASSIFICATION_TYPE": "U", "NORAD_CAT_ID": 34875, "ELEMENT_SET_NO": 999, "REV_AT_EPOCH": 87853, "BSTAR": 0.00033791, "MEAN_MOTION_DOT": 1.255e-05, "MEAN_MOTION_DDOT": 0}, "tle": {"line1": "1 34875U 93036ACN 25353.47822933  .00001255  00000+0  33791-3 0  9992", "line2": "2 34875  74.0433 145.5897 0016196 268.7630 149.3216 14.48947014878533"}}, "geometry": {"type": "Point", "coordinates": [-11.877830345206215, -55.30177649646978]}}, {"type": "Feature", "properties": {"norad_id": 34878, "name": "COSMOS 2251 DEB", "group": "cosmos-2251-debris", "lat": -30.844934461530176, "lon": 25.155797411555344, "alt_km": 878.5661660080787, "timestamp": "2025-12-20T11:30:28.771434+00:00", "meta": {"OBJECT_NAME": "COSMOS 2251 DEB", "OBJECT_ID": "1993-036ACR", "EPOCH": "2025-12-20T02:51:54.266112", "MEAN_MOTION": 13.44200085, "ECCENTRICITY": 0.0435602, "INCLINATION": 73.965, "RA_OF_ASC_NODE": 35.6157, "ARG_OF_PERICENTER": 17.6827, "MEAN_ANOMALY": 11.8411, "EPHEMERIS_TYPE": 0, "CLASSIFICATION_TYPE": "U", "NORAD_CAT_ID": 34878, "ELEMENT_SET_NO": 999, "REV_AT_EPOCH": 81372, "BSTAR": 0.00054187, "MEAN_MOTION_DOT": 5.36e-06, "MEAN_MOTION_DDOT": 0}, "tle": {"line1": "1 34878U 93036ACR 25354.11937808  .00000536  00000+0  54187-3 0  9998", "line2": "2 34878  73.9650  35.6157 0435602  17.6827  11.8411 13.44200085813724"}}, "geometry": {"type": "Point", "coordinates": [25.155797411555344, -30.844934461530176]}}, {"type": "Feature", "properties": {"norad_id": 34882, "name": "COSMOS 2251 DEB", "group": "cosmos-2251-debris", "lat": 5.3369020821728865, "lon": 29.26188829746748, "alt_km": 745.610437901918, "timestamp": "2025-12-20T11:30:28.771444+00:00", "meta": {"OBJECT_NAME": "COSMOS 2251 DEB", "OBJECT_ID": "1993-036ACV", "EPOCH": "2025-12-20T00:51:13.406112", "MEAN_MOTION": 14.61609371, "ECCENTRICITY": 0.008317, "INCLINATION": 74.0454, "RA_OF_ASC_NODE": 211.6418, "ARG_OF_PERICENTER": 336.8506, "MEAN_ANOMALY": 22.892, "EPHEMERIS_TYPE": 0, "CLASSIFICATION_TYPE": "U", "NORAD_CAT_ID": 34882, "ELEMENT_SET_NO": 999, "REV_AT_EPOCH": 88631, "BSTAR": 9.3819e-05, "MEAN_MOTION_DOT": 4.56e-06, "MEAN_MOTION_DDOT": 0}, "tle": {"line1": "1 34882U 93036ACV 25354.03557183  .00000456  00000+0  93819-4 0  9995", "line2": "2 34882  74.0454 211.6418 0083170 336.8506  22.8920 14.61609371886311"}}, "geometry": {"type": "Point", "coordinates": [29.26188829746748, 5.3369020821728865]}}, {"type": "Feature", "properties": {"norad_id": 34883, "name": "COSMOS 2251 DEB", "group": "cosmos-2251-debris", "lat": -52.07984665564387, "lon": 26.982151977812286, "alt_km": 706.137628956335, "timestamp": "2025-12-20T11:30:28.771454+00:00", "meta": {"OBJECT_NAME": "COSMOS 2251 DEB", "OBJECT_ID": "1993-036ACW", "EPOCH": "2025-12-18T13:27:07.209504", "MEAN_MOTION": 14.51672805, "ECCENTRICITY": 0.00951028, "INCLINATION": 74.2022, "RA_OF_ASC_NODE": 51.868, "ARG_OF_PERICENTER": 236.3156, "MEAN_ANOMALY": 122.8912, "EPHEMERIS_TYPE": 0, "CLASSIFICATION_TYPE": "U", "NORAD_CAT_ID": 34883, "ELEMENT_SET_NO": 999, "REV_AT_EPOCH": 86524, "BSTAR": 0.0028915699, "MEAN_MOTION_DOT": 0.00012297, "MEAN_MOTION_DDOT": 0}, "tle": {"line1": "1 34883U 93036ACW 25352.56050011  .00012297  00000+0  28916-2 0  9990", "line2": "2 34883  74.2022  51.8680 0095102 236.3156 122.8912 14.51672805865245"}}, "geometry": {"type": "Point", "coordinates": [26.982151977812286, -52.07984665564387]}}, {"type": "Feature", "properties": {"norad_id": 34884, "name": "COSMOS 2251 DEB", "group": "cosmos-2251-debris", "lat": -50.436709980825, "lon": -118.46949905608747, "alt_km": 605.1766715198655, "timestamp": "2025-12-20T11:30:28.771464+00:00", "meta": {"OBJECT_NAME": "COSMOS 2251 DEB", "OBJECT_ID": "1993-036ACX", "EPOCH": "2025-12-20T04:17:51.690336", "MEAN_MOTION": 14.90374119, "ECCENTRICITY": 0.0002687, "INCLINATION": 74.0171, "RA_OF_ASC_NODE": 41.8338, "ARG_OF_PERICENTER": 47.3829, "MEAN_ANOMALY": 14.6311, "EPHEMERIS_TYPE": 0, "CLASSIFICATION_TYPE": "U", "NORAD_CAT_ID": 34884, "ELEMENT_SET_NO": 999, "REV_AT_EPOCH": 87916, "BSTAR": 0.0014303, "MEAN_MOTION_DOT": 0.00013917, "MEAN_MOTION_DDOT": 0}, "tle": {"line1": "1 34884U 93036ACX 25354.17907049  .00013917  00000+0  14303-2 0  9997", "line2": "2 34884  74.0171  41.8338 0002687  47.3829  14.6311 14.90374119879168"}}, "geometry": {"type": "Point", "coordinates": [-118.46949905608747, -50.436709980825]}}, {"type": "Feature", "properties": {"norad_id": 34885, "name": "COSMOS 2251 DEB", "group": "cosmos-2251-debris", "lat": 55.31370493827652, "lon": -35.99415069822933, "alt_km": 722.2314774253664, "timestamp": "2025-12-20T11:30:28.771474+00:00", "meta": {"OBJECT_NAME": "COSMOS 2251 DEB", "OBJECT_ID": "1993-036ACY", "EPOCH": "2025-12-19T20:36:45.224064", "MEAN_MOTION": 14.51536925, "ECCENTRICITY": 0.00150862, "INCLINATION": 74.0297, "RA_OF_ASC_NODE": 169.617, "ARG_OF_PERICENTER": 254.9308, "MEAN_ANOMALY": 224.4752, "EPHEMERIS_TYPE": 0, "CLASSIFICATION_TYPE": "U", "NORAD_CAT_ID": 34885, "ELEMENT_SET_NO": 999, "REV_AT_EPOCH": 87582, "BSTAR": 0.00048267206, "MEAN_MOTION_DOT": 1.906e-05, "MEAN_MOTION_DDOT": 0}, "tle": {"line1": "1 34885U 93036ACY 25353.85885676  .00001906  00000+0  48267-3 0  9995", "line2": "2 34885  74.0297 169.6170 0015086 254.9308 224.4752 14.51536925875827"}}, "geometry": {"type": "Point", "coordinates": [-35.99415069822933, 55.31370493827652]}}, {"type": "Feature", "properties": {"norad_id": 34886, "name": "COSMOS 2251 DEB", "group": "cosmos-2251-debris", "lat": 52.075102288142574, "lon": -37.48233851615219, "alt_km": 458.06214934388936, "timestamp": "2025-12-20T11:30:28.771484+00:00", "meta": {"OBJECT_NAME": "COSMOS 2251 DEB", "OBJECT_ID": "1993-036ACZ", "EPOCH": "2025-12-19T05:20:10.106016", "MEAN_MOTION": 15.39455892, "ECCENTRICITY": 0.0031395, "INCLINATION": 73.9504, "RA_OF_ASC_NODE": 166.9286, "ARG_OF_PERICENTER": 349.772, "MEAN_ANOMALY": 10.2844, "EPHEMERIS_TYPE": 0, "CLASSIFICATION_TYPE": "U", "NORAD_CAT_ID": 34886, "ELEMENT_SET_NO": 999, "REV_AT_EPOCH": 63098, "BSTAR": 0.0012728, "MEAN_MOTION_DOT": 0.00051055, "MEAN_MOTION_DDOT": 0}, "tle": {"line1": "1 34886U 93036ACZ 25353.22233919  .00051055  00000+0  12728-2 0  9996", "line2": "2 34886  73.9504 166.9286 0031395 349.7720  10.2844 15.39455892630986"}}, "geometry": {"type": "Point", "coordinates": [-37.48233851615219, 52.075102288142574]}}, {"type": "Feature", "properties": {"norad_id": 34907, "name": "COSMOS 2251 DEB", "group": "cosmos-2251-debris", "lat": -72.96075866260851, "lon": -78.79108934172481, "alt_km": 420.56308660079776, "timestamp": "2025-12-20T11:30:28.771494+00:00", "meta": {"OBJECT_NAME": "COSMOS 2251 DEB", "OBJECT_ID": "1993-036ADC", "EPOCH": "2025-12-20T04:10:12.406080", "MEAN_MOTION": 15.49047772, "ECCENTRICITY": 0.0019036, "INCLINATION": 73.9676, "RA_OF_ASC_NODE": 32.117, "ARG_OF_PERICENTER": 330.6977, "MEAN_ANOMALY": 29.3166, "EPHEMERIS_TYPE": 0, "CLASSIFICATION_TYPE": "U", "NORAD_CAT_ID": 34907, "ELEMENT_SET_NO": 999, "REV_AT_EPOCH": 88088, "BSTAR": 0.0054057, "MEAN_MOTION_DOT": 0.00306776, "MEAN_MOTION_DDOT": 0}, "tle": {"line1": "1 34907U 93036ADC 25354.17375470  .00306776  00000+0  54057-2 0  9998", "line2": "2 34907  73.9676  32.1170 0019036 330.6977  29.3166 15.49047772880886"}}, "geometry": {"type": "Point", "coordinates": [-78.79108934172481, -72.96075866260851]}}, {"type": "Feature", "properties": {"norad_id": 34908, "name": "COSMOS 2251 DEB", "group": "cosmos-2251-debris", "lat": 28.543635753861633, "lon": -179.51028288124715, "alt_km": 782.6418541136927, "timestamp": "2025-12-20T11:30:28.771504+00:00", "meta": {"OBJECT_NAME": "COSMOS 2251 DEB", "OBJECT_ID": "1993-036ADD", "EPOCH": "2025-12-19T18:38:11.181984", "MEAN_MOTION": 14.37417399, "ECCENTRICITY": 0.00403897, "INCLINATION": 74.058, "RA_OF_ASC_NODE": 10.7255, "ARG_OF_PERICENTER": 24.6469, "MEAN_ANOMALY": 88.8338, "EPHEMERIS_TYPE": 0, "CLASSIFICATION_TYPE": "U", "NORAD_CAT_ID": 34908, "ELEMENT_SET_NO": 999, "REV_AT_EPOCH": 87380, "BSTAR": 0.0003685742, "MEAN_MOTION_DOT": 1.086e-05, "MEAN_MOTION_DDOT": 0}, "tle": {"line1": "1 34908U 93036ADD 25353.77651831  .00001086  00000+0  36857-3 0  9997", "line2": "2 34908  74.0580  10.7255 0040389  24.6469  88.8338 14.37417399873807"}}, "geometry": {"type": "Point", "coordinates": [-179.51028288124715, 28.543635753861633]}}, {"type": "Feature", "properties": {"norad_id": 34909, "name": "COSMOS 2251 DEB", "group": "cosmos-2251-debris", "lat": -28.498973367013814, "lon": 52.402191950737354, "alt_km": 682.9227114215764, "timestamp": "2025-12-20T11:30:28.771514+00:00", "meta": {"OBJECT_NAME": "COSMOS 2251 DEB", "OBJECT_ID": "1993-036ADE", "EPOCH": "2025-12-19T21:01:21.584064", "MEAN_MOTION": 14.77890246, "ECCENTRICITY": 0.0084047, "INCLINATION": 74.0147, "RA_OF_ASC_NODE": 62.542, "ARG_OF_PERICENTER": 196.7098, "MEAN_ANOMALY": 163.1306, "EPHEMERIS_TYPE": 0, "CLASSIFICATION_TYPE": "U", "NORAD_CAT_ID": 34909, "ELEMENT_SET_NO": 999, "REV_AT_EPOCH": 66957, "BSTAR": 0.00035617, "MEAN_MOTION_DOT": 2.682e-05, "MEAN_MOTION_DDOT": 0}, "tle": {"line1": "1 34909U 93036ADE 25353.87594426  .00002682  00000+0  35617-3 0  9991", "line2": "2 34909  74.0147  62.5420 0084047 196.7098 163.1306 14.77890246669573"}}, "geometry": {"type": "Point", "coordinates": [52.402191950737354, -28.498973367013814]}}]}